[{"OBJECT_NAME":"STARLINK-30043","OBJECT_ID":"2023-102P","EPOCH":"2026-03-09T22:00:01.999584","MEAN_MOTION":15.16913406,"ECCENTRICITY":0.00016842,"INCLINATION":43,"RA_OF_ASC_NODE":246.5874,"ARG_OF_PERICENTER":259.2585,"MEAN_ANOMALY":70.8182,"EPHEMERIS_TYPE":0,"CLASSIFICATION_TYPE":"U","NORAD_CAT_ID":57417,"ELEMENT_SET_NO":999,"REV_AT_EPOCH":538,"BSTAR":0.0056084196,"MEAN_MOTION_DOT":0.0011416,"MEAN_MOTION_DDOT":0},{"OBJECT_NAME":"FOSSASAT-2E21","OBJECT_ID":"2025-135J","EPOCH":"2026-03-09T20:26:11.535360","MEAN_MOTION":15.19342194,"ECCENTRICITY":0.00047332,"INCLINATION":97.4527,"RA_OF_ASC_NODE":184.3473,"ARG_OF_PERICENTER":156.4187,"MEAN_ANOMALY":203.7265,"EPHEMERIS_TYPE":0,"CLASSIFICATION_TYPE":"U","NORAD_CAT_ID":64536,"ELEMENT_SET_NO":999,"REV_AT_EPOCH":3973,"BSTAR":0.00023900461,"MEAN_MOTION_DOT":4.984e-5,"MEAN_MOTION_DDOT":0}]
